0 DELTA 1 R/B
1 04486U 70055B   13282.13488800  .00012894  00000-0  12368-2 0  5034
2 04486 027.9512 015.1817 4846616 285.0464 145.4036 05.91712076511252
0 DELTA 1 R/B
1 04486U 70055B   13282.62225352  .00012526  00000-0  12036-2 0  5044
2 04486 027.9508 014.5607 4846513 286.0586 103.5693 05.91722178511280
0 DELTA 1 R/B
1 04486U 70055B   13283.14903730  .00012701  00000-0  12218-2 0  5053
2 04486 027.9504 013.8894 4846362 287.1672 145.6878 05.91742815511312
0 DELTA 1 R/B
1 04486U 70055B   13283.43101344  .00024740  00000-0  22830-2 0  5075
2 04486 027.9551 013.5072 4848103 287.7660 026.4245 05.91729501511330
0 DELTA 1 R/B
1 04486U 70055B   13283.82398763  .00012947  00000-0  12472-2 0  5067
2 04486 027.9500 013.0292 4846196 288.5739 143.5048 05.91761700511350
0 DELTA 1 R/B
1 04486U 70055B   13285.47291177  .00012728  00000-0  12261-2 0  5086
2 04486 027.9488 010.9279 4845858 292.0300 056.3059 05.91808651511444
0 DELTA 1 R/B
1 04486U 70055B   13286.52181075  .00013774  00000-0  13272-2 0  5094
2 04486 027.9480 009.5907 4845630 294.2201 131.0202 05.91831162511512
0 DELTA 1 R/B
1 04486U 70055B   13287.83833648  .00015397  00000-0  14831-2 0  5106
2 04486 027.9470 007.9122 4845302 296.9779 056.0482 05.91874298511587
0 DELTA 1 R/B
1 04486U 70055B   13289.17694274  .00014668  00000-0  14124-2 0  5111
2 04486 027.9460 006.2055 4844953 299.7864 028.3162 05.91923627511667
0 DELTA 1 R/B
1 04486U 70055B   13289.86539466  .00015315  00000-0  14771-2 0  5127
2 04486 027.9454 005.3276 4844796 301.2183 055.3697 05.91937815511705
0 DELTA 1 R/B
1 04486U 70055B   13290.39197185  .00015314  00000-0  14785-2 0  5152
2 04486 027.9450 004.6561 4844667 302.3213 097.4890 05.91952068511746
0 DELTA 1 R/B
1 04486U 70055B   13290.69320531  .00014803  00000-0  13778-2 0  5140
2 04486 027.9515 004.2574 4846404 302.9628 019.4479 05.91953135511759
0 DELTA 1 R/B
1 04486U 70055B   13291.40683693  .00015470  00000-0  14966-2 0  5164
2 04486 027.9442 003.3617 4844423 304.4492 100.2199 05.91983068511803
0 DELTA 1 R/B
1 04486U 70055B   13292.42060846  .00015927  00000-0  15452-2 0  5175
2 04486 027.9435 002.0684 4844179 306.5714 100.7401 05.92012627511865
0 DELTA 1 R/B
1 04486U 70055B   13293.43507247  .00016150  00000-0  15711-2 0  5186
2 04486 027.9427 000.7742 4843924 308.6991 102.8357 05.92047158511920
0 DELTA 1 R/B
1 04486U 70055B   13294.10381159  .00014692  00000-0  14323-2 0  5191
2 04486 027.9422 359.9208 4843718 310.1084 088.1358 05.92074576511968
0 DELTA 1 R/B
1 04486U 70055B   13294.79014281  .00016439  00000-0  16064-2 0  5202
2 04486 027.9416 359.0450 4843581 311.5340 111.0520 05.92088547512005
0 DELTA 1 R/B
1 04486U 70055B   13295.46397543  .00015899  00000-0  15566-2 0  5218
2 04486 027.9411 358.1850 4843360 312.9570 107.3115 05.92119888512044
0 DELTA 1 R/B
1 04486U 70055B   13295.65829146  .00016328  00000-0  15998-2 0  5226
2 04486 027.9409 357.9370 4843352 313.3565 161.5373 05.92117341512056
